GLOBALSTAR M068         
1 32266U 07048D   24315.13383875 -.00000003  00000+0  56046-3 0  9998
2 32266  51.9885 249.9960 0001529  31.8661 341.7835 12.62807789790173
GLOBALSTAR M079         
1 37188U 10054A   24314.77787477 -.00000076  00000+0  15273-3 0  9999
2 37188  52.0035  87.7020 0001025 122.3291  28.0860 12.62267004648749
GLOBALSTAR M074         
1 37189U 10054B   24315.12508376 -.00000071  00000+0  18180-3 0  9994
2 37189  52.0012  85.9978 0000642 109.0234  62.0133 12.62258956649467
GLOBALSTAR M076         
1 37190U 10054C   24315.15227281 -.00000083  00000+0  11676-3 0  9998
2 37190  52.0026  86.0711 0000710 135.1659  36.4388 12.62273520649470
GLOBALSTAR M077         
1 37191U 10054D   24314.65944395 -.00000065  00000+0  21708-3 0  9992
2 37191  52.0093  44.3646 0000576 117.7028  33.7580 12.62266699649423
GLOBALSTAR M075         
1 37192U 10054E   24314.92310604 -.00000073  00000+0  16989-3 0  9997
2 37192  51.9924 129.1472 0000846  95.0099  56.3990 12.62268920648682
GLOBALSTAR M073         
1 37193U 10054F   24314.68719654 -.00000095  00000+0  47561-4 0  9994
2 37193  52.0081  43.5158 0000588 131.2750  27.4319 12.62272175650111
GLOBALSTAR M083         
1 37739U 11033A   24314.43086773 -.00000068  00000+0  19864-3 0  9994
2 37739  51.9879 353.3303 0000544 107.0544 266.4749 12.62267696619106
GLOBALSTAR M088         
1 37740U 11033B   24314.88441338 -.00000072  00000+0  17928-3 0  9991
2 37740  51.9732 257.6232 0000703  68.3539 327.9769 12.62264843614700
GLOBALSTAR M091         
1 37741U 11033C   24314.82015144 -.00000075  00000+0  15833-3 0  9994
2 37741  51.9992 220.9844 0001085  79.3670 323.2389 12.62270300615481
GLOBALSTAR M085         
1 37742U 11033D   24314.87950236 -.00000074  00000+0  16820-3 0  9996
2 37742  51.9844 172.0349 0001225  89.1023 284.5890 12.62269200616004
GLOBALSTAR M081         
1 37743U 11033E   24314.93140573 -.00000066  00000+0  21086-3 0  9990
2 37743  51.9936 174.5283 0001074 100.4417  29.1949 12.62263509616157
GLOBALSTAR M089         
1 37744U 11033F   24314.89609318 -.00000072  00000+0  17694-3 0  9990
2 37744  51.9898 128.9045 0000669 106.9261  41.0997 12.62272278616992
GLOBALSTAR M084         
1 38040U 11080A   24314.83527940 -.00000064  00000+0  22454-3 0  9997
2 38040  52.0031 356.2618 0000067  77.6533  94.3566 12.62270245594960
GLOBALSTAR M080         
1 38041U 11080B   24315.17488553 -.00000075  00000+0  16127-3 0  9994
2 38041  52.0083 356.7589 0000238 208.6691 186.7946 12.62268146595271
GLOBALSTAR M082         
1 38042U 11080C   24315.10727899 -.00000066  00000+0  20952-3 0  9998
2 38042  52.0083 312.3872 0000867  68.8404 319.5242 12.62269379596007
GLOBALSTAR M092         
1 38043U 11080D   24315.03311554 -.00000072  00000+0  17487-3 0  9994
2 38043  52.0106  42.9750 0000504 103.5246  67.8034 12.62269304594484
GLOBALSTAR M090         
1 38044U 11080E   24314.89588810 -.00000060  00000+0  24313-3 0  9992
2 38044  51.9891 307.1206 0000629  72.6664 315.0585 12.62270470595929
GLOBALSTAR M086         
1 38045U 11080F   24314.71607895 -.00000050  00000+0  29866-3 0  9996
2 38045  51.9906 308.2015 0000739 169.9233   0.8724 12.62269938595843
GLOBALSTAR M097         
1 39072U 13005A   24314.86366922 -.00000083  00000+0  11848-3 0  9992
2 39072  52.0043 222.0777 0000897  84.6234 275.4735 12.62267041543113
GLOBALSTAR M093         
1 39073U 13005B   24314.83691883 -.00000078  00000+0  14223-3 0  9991
2 39073  51.9807 215.8111 0001062  85.0085 275.0903 12.62267354543060
GLOBALSTAR M094         
1 39074U 13005C   24314.83698102 -.00000076  00000+0  15324-3 0  9994
2 39074  51.9931 129.9722 0001190 107.7622 252.3374 12.62265317544678
GLOBALSTAR M096         
1 39075U 13005D   24315.08770247 -.00000082  00000+0  11919-3 0  9997
2 39075  52.0052 177.5542 0001218  91.9420 268.1587 12.62264507543978
GLOBALSTAR M078         
1 39076U 13005E   24314.90248630  .00000030  00000+0  74443-3 0  9997
2 39076  51.9872 262.9220 0001552  60.0245 300.0775 12.62266896542227
GLOBALSTAR M095         
1 39077U 13005F   24315.16691426 -.00000071  00000+0  18349-3 0  9991
2 39077  51.9798 259.4255 0001198  74.6201 285.4797 12.62267761542472
GLOBALSTAR M087         
1 52888U 22064A   24314.66792586 -.00000026  00000+0  19497-3 0  9999
2 52888  51.9768  61.0868 0009320  18.2808 341.8426 13.37593447116999
